{"fetched_at":"2026-03-29T16:36:15Z","count":15609,"tles":[{"name":"YAOGAN-45","line1":"1 65563U 25202A   26082.64843916 -.00000014  00000+0  00000+0 0  9999","line2":"2 65563  19.9728 270.6669 0006905 127.8848 232.1815  5.31206594  7540","category":"Other"}]}