{
  "norad_id": 65563,
  "name": "YAOGAN-45",
  "history": [
    {
      "epoch": "2026-03-23T15:33:45.143424",
      "apogee_km": 7506.227621570971,
      "perigee_km": 7487.064603622842,
      "latitude_deg": -18.76064333123781,
      "longitude_deg": -41.44984063995071,
      "semi_major_axis_km": 13874.783112596906,
      "eccentricity": 0.00069057,
      "inclination_deg": 19.9728,
      "raan_deg": 270.6669,
      "arg_perigee_deg": 127.8848,
      "mean_anomaly_deg": 232.1815,
      "mean_motion_rev_day": 5.31206594
    }
  ]
}